[{"OBJECT_NAME":"STARLINK-5215","OBJECT_ID":"2022-175B","EPOCH":"2026-03-09T22:32:26.708928","MEAN_MOTION":15.08841247,"ECCENTRICITY":0.00015492,"INCLINATION":53.2175,"RA_OF_ASC_NODE":38.2229,"ARG_OF_PERICENTER":94.6855,"MEAN_ANOMALY":265.4314,"EPHEMERIS_TYPE":0,"CLASSIFICATION_TYPE":"U","NORAD_CAT_ID":54759,"ELEMENT_SET_NO":999,"REV_AT_EPOCH":18002,"BSTAR":-5.6332374e-5,"MEAN_MOTION_DOT":-1.184e-5,"MEAN_MOTION_DDOT":0},{"OBJECT_NAME":"UNISAT-5","OBJECT_ID":"2013-066F","EPOCH":"2026-03-09T22:02:55.134816","MEAN_MOTION":15.04155626,"ECCENTRICITY":0.00317175,"INCLINATION":97.6976,"RA_OF_ASC_NODE":39.5171,"ARG_OF_PERICENTER":68.1555,"MEAN_ANOMALY":292.3039,"EPHEMERIS_TYPE":0,"CLASSIFICATION_TYPE":"U","NORAD_CAT_ID":39421,"ELEMENT_SET_NO":999,"REV_AT_EPOCH":66774,"BSTAR":0.0004680489,"MEAN_MOTION_DOT":6.504e-5,"MEAN_MOTION_DDOT":0}]
